{"type": "FeatureCollection", "features": [ {"type": "Feature", "properties": {"norad_id": 30369, "name": "FENGYUN 1C DEB", "group": "fengyun-1c-debris", "lat": -40.241286511476794, "lon": 5.244460231101331, "alt_km": 928.0200011228326, "timestamp": "2025-12-26T19:22:39.182739+00:00", "meta": {"OBJECT_NAME": "FENGYUN 1C DEB", "OBJECT_ID": "1999-025ACG", "EPOCH": "2025-12-26T11:47:06.233568", "MEAN_MOTION": 14.12067178, "ECCENTRICITY": 0.00997976, "INCLINATION": 98.7219, "RA_OF_ASC_NODE": 357.472, "ARG_OF_PERICENTER": 156.3942, "MEAN_ANOMALY": 355.3007, "EPHEMERIS_TYPE": 0, "CLASSIFICATION_TYPE": "U", "NORAD_CAT_ID": 30369, "ELEMENT_SET_NO": 999, "REV_AT_EPOCH": 97440, "BSTAR": 0.00016294964, "MEAN_MOTION_DOT": 2.71e-06, "MEAN_MOTION_DDOT": 0}, "tle": {"line1": "1 30369U 99025ACG 25360.49104437  .00000271  00000+0  16295-3 0  9999", "line2": "2 30369  98.7219 357.4720 0099797 156.3942 355.3007 14.12067178974402"}}, "geometry": {"type": "Point", "coordinates": [5.244460231101331, -40.241286511476794]}}, {"type": "Feature", "properties": {"norad_id": 30370, "name": "FENGYUN 1C DEB", "group": "fengyun-1c-debris", "lat": -62.416070340780905, "lon": -140.70904623571604, "alt_km": 774.6986890517155, "timestamp": "2025-12-26T19:22:39.182750+00:00", "meta": {"OBJECT_NAME": "FENGYUN 1C DEB", "OBJECT_ID": "1999-025ACH", "EPOCH": "2025-12-26T03:15:30.924576", "MEAN_MOTION": 14.19218493, "ECCENTRICITY": 0.00997349, "INCLINATION": 99.0553, "RA_OF_ASC_NODE": 56.3784, "ARG_OF_PERICENTER": 278.7942, "MEAN_ANOMALY": 136.0642, "EPHEMERIS_TYPE": 0, "CLASSIFICATION_TYPE": "U", "NORAD_CAT_ID": 30370, "ELEMENT_SET_NO": 999, "REV_AT_EPOCH": 97284, "BSTAR": 0.0011911662, "MEAN_MOTION_DOT": 2.576e-05, "MEAN_MOTION_DDOT": 0}, "tle": {"line1": "1 30370U 99025ACH 25360.13577459  .00002576  00000+0  11912-2 0  9990", "line2": "2 30370  99.0553  56.3784 0099734 278.7942 136.0642 14.19218493972844"}}, "geometry": {"type": "Point", "coordinates": [-140.70904623571604, -62.416070340780905]}}, {"type": "Feature", "properties": {"norad_id": 30371, "name": "FENGYUN 1C DEB", "group": "fengyun-1c-debris", "lat": 75.55715496589895, "lon": -100.53346285677829, "alt_km": 788.4304150222433, "timestamp": "2025-12-26T19:22:39.182760+00:00", "meta": {"OBJECT_NAME": "FENGYUN 1C DEB", "OBJECT_ID": "1999-025ACJ", "EPOCH": "2025-12-26T02:22:00.824160", "MEAN_MOTION": 14.30299082, "ECCENTRICITY": 0.00068986, "INCLINATION": 98.5747, "RA_OF_ASC_NODE": 42.9069, "ARG_OF_PERICENTER": 291.6194, "MEAN_ANOMALY": 122.5413, "EPHEMERIS_TYPE": 0, "CLASSIFICATION_TYPE": "U", "NORAD_CAT_ID": 30371, "ELEMENT_SET_NO": 999, "REV_AT_EPOCH": 98094, "BSTAR": 0.00097596966, "MEAN_MOTION_DOT": 2.49e-05, "MEAN_MOTION_DDOT": 0}, "tle": {"line1": "1 30371U 99025ACJ 25360.09862065  .00002490  00000+0  97597-3 0  9995", "line2": "2 30371  98.5747  42.9069 0006898 291.6194 122.5413 14.30299082980945"}}, "geometry": {"type": "Point", "coordinates": [-100.53346285677829, 75.55715496589895]}}, {"type": "Feature", "properties": {"norad_id": 30374, "name": "FENGYUN 1C DEB", "group": "fengyun-1c-debris", "lat": -37.90644262458728, "lon": -126.65928498954797, "alt_km": 721.6866348207359, "timestamp": "2025-12-26T19:22:39.182769+00:00", "meta": {"OBJECT_NAME": "FENGYUN 1C DEB", "OBJECT_ID": "1999-025ACM", "EPOCH": "2025-12-26T08:18:49.487040", "MEAN_MOTION": 14.61473844, "ECCENTRICITY": 0.00398133, "INCLINATION": 99.2722, "RA_OF_ASC_NODE": 225.5163, "ARG_OF_PERICENTER": 126.1066, "MEAN_ANOMALY": 291.5965, "EPHEMERIS_TYPE": 0, "CLASSIFICATION_TYPE": "U", "NORAD_CAT_ID": 30374, "ELEMENT_SET_NO": 999, "REV_AT_EPOCH": 99121, "BSTAR": 0.0015441698, "MEAN_MOTION_DOT": 7.688e-05, "MEAN_MOTION_DDOT": 0}, "tle": {"line1": "1 30374U 99025ACM 25360.34640610  .00007688  00000+0  15442-2 0  9998", "line2": "2 30374  99.2722 225.5163 0039813 126.1066 291.5965 14.61473844991211"}}, "geometry": {"type": "Point", "coordinates": [-126.65928498954797, -37.90644262458728]}}, {"type": "Feature", "properties": {"norad_id": 30377, "name": "FENGYUN 1C DEB", "group": "fengyun-1c-debris", "lat": -32.738441993653886, "lon": -165.8860923399929, "alt_km": 819.5290838140318, "timestamp": "2025-12-26T19:22:39.182779+00:00", "meta": {"OBJECT_NAME": "FENGYUN 1C DEB", "OBJECT_ID": "1999-025ACQ", "EPOCH": "2025-12-26T01:31:30.668160", "MEAN_MOTION": 13.99186408, "ECCENTRICITY": 0.01178867, "INCLINATION": 98.8928, "RA_OF_ASC_NODE": 19.169, "ARG_OF_PERICENTER": 229.5897, "MEAN_ANOMALY": 199.0692, "EPHEMERIS_TYPE": 0, "CLASSIFICATION_TYPE": "U", "NORAD_CAT_ID": 30377, "ELEMENT_SET_NO": 999, "REV_AT_EPOCH": 96393, "BSTAR": 0.0004794695, "MEAN_MOTION_DOT": 6.94e-06, "MEAN_MOTION_DDOT": 0}, "tle": {"line1": "1 30377U 99025ACQ 25360.06354940  .00000694  00000+0  47947-3 0  9994", "line2": "2 30377  98.8928  19.1690 0117886 229.5897 199.0692 13.99186408963930"}}, "geometry": {"type": "Point", "coordinates": [-165.8860923399929, -32.738441993653886]}}, {"type": "Feature", "properties": {"norad_id": 30379, "name": "FENGYUN 1C DEB", "group": "fengyun-1c-debris", "lat": 58.324503400537026, "lon": 0.6626317697447387, "alt_km": 886.237262418942, "timestamp": "2025-12-26T19:22:39.182789+00:00", "meta": {"OBJECT_NAME": "FENGYUN 1C DEB", "OBJECT_ID": "1999-025ACS", "EPOCH": "2025-12-26T14:35:38.282208", "MEAN_MOTION": 14.08048757, "ECCENTRICITY": 0.00356817, "INCLINATION": 98.7577, "RA_OF_ASC_NODE": 14.9366, "ARG_OF_PERICENTER": 239.1101, "MEAN_ANOMALY": 250.624, "EPHEMERIS_TYPE": 0, "CLASSIFICATION_TYPE": "U", "NORAD_CAT_ID": 30379, "ELEMENT_SET_NO": 999, "REV_AT_EPOCH": 97012, "BSTAR": 0.00021215743, "MEAN_MOTION_DOT": 3.2e-06, "MEAN_MOTION_DDOT": 0}, "tle": {"line1": "1 30379U 99025ACS 25360.60808197  .00000320  00000+0  21216-3 0  9991", "line2": "2 30379  98.7577  14.9366 0035681 239.1101 250.6240 14.08048757970128"}}, "geometry": {"type": "Point", "coordinates": [0.6626317697447387, 58.324503400537026]}}, {"type": "Feature", "properties": {"norad_id": 30380, "name": "FENGYUN 1C DEB", "group": "fengyun-1c-debris", "lat": 80.85219079172013, "lon": -53.70109722667156, "alt_km": 698.2248946757481, "timestamp": "2025-12-26T19:22:39.182799+00:00", "meta": {"OBJECT_NAME": "FENGYUN 1C DEB", "OBJECT_ID": "1999-025ACT", "EPOCH": "2025-12-26T02:23:34.239840", "MEAN_MOTION": 14.50703403, "ECCENTRICITY": 0.01780989, "INCLINATION": 98.9127, "RA_OF_ASC_NODE": 48.5131, "ARG_OF_PERICENTER": 177.1536, "MEAN_ANOMALY": 183.0715, "EPHEMERIS_TYPE": 0, "CLASSIFICATION_TYPE": "U", "NORAD_CAT_ID": 30380, "ELEMENT_SET_NO": 999, "REV_AT_EPOCH": 99759, "BSTAR": 0.00027594151, "MEAN_MOTION_DOT": 1.271e-05, "MEAN_MOTION_DDOT": 0}, "tle": {"line1": "1 30380U 99025ACT 25360.09970185  .00001271  00000+0  27594-3 0  9994", "line2": "2 30380  98.9127  48.5131 0178098 177.1536 183.0715 14.50703403997598"}}, "geometry": {"type": "Point", "coordinates": [-53.70109722667156, 80.85219079172013]}}, {"type": "Feature", "properties": {"norad_id": 30381, "name": "FENGYUN 1C DEB", "group": "fengyun-1c-debris", "lat": -47.68070671913222, "lon": 45.388912534091915, "alt_km": 852.0213056375369, "timestamp": "2025-12-26T19:22:39.182810+00:00", "meta": {"OBJECT_NAME": "FENGYUN 1C DEB", "OBJECT_ID": "1999-025ACU", "EPOCH": "2025-12-24T13:13:19.655616", "MEAN_MOTION": 14.12982436, "ECCENTRICITY": 0.00538965, "INCLINATION": 98.8127, "RA_OF_ASC_NODE": 33.3585, "ARG_OF_PERICENTER": 42.5981, "MEAN_ANOMALY": 317.9353, "EPHEMERIS_TYPE": 0, "CLASSIFICATION_TYPE": "U", "NORAD_CAT_ID": 30381, "ELEMENT_SET_NO": 999, "REV_AT_EPOCH": 92333, "BSTAR": 0.00093102658, "MEAN_MOTION_DOT": 1.716e-05, "MEAN_MOTION_DDOT": 0}, "tle": {"line1": "1 30381U 99025ACU 25358.55092194  .00001716  00000+0  93103-3 0  9991", "line2": "2 30381  98.8127  33.3585 0053896  42.5981 317.9353 14.12982436923330"}}, "geometry": {"type": "Point", "coordinates": [45.388912534091915, -47.68070671913222]}}, {"type": "Feature", "properties": {"norad_id": 30382, "name": "FENGYUN 1C DEB", "group": "fengyun-1c-debris", "lat": -19.931347698501963, "lon": -144.357292590778, "alt_km": 858.9755705703919, "timestamp": "2025-12-26T19:22:39.182820+00:00", "meta": {"OBJECT_NAME": "FENGYUN 1C DEB", "OBJECT_ID": "1999-025ACV", "EPOCH": "2025-12-26T14:08:30.043968", "MEAN_MOTION": 14.25349507, "ECCENTRICITY": 0.01542795, "INCLINATION": 98.4981, "RA_OF_ASC_NODE": 38.5391, "ARG_OF_PERICENTER": 316.3025, "MEAN_ANOMALY": 206.5434, "EPHEMERIS_TYPE": 0, "CLASSIFICATION_TYPE": "U", "NORAD_CAT_ID": 30382, "ELEMENT_SET_NO": 999, "REV_AT_EPOCH": 97732, "BSTAR": 0.00091835074, "MEAN_MOTION_DOT": 2.406e-05, "MEAN_MOTION_DDOT": 0}, "tle": {"line1": "1 30382U 99025ACV 25360.58923662  .00002406  00000+0  91835-3 0  9998", "line2": "2 30382  98.4981  38.5391 0154279 316.3025 206.5434 14.25349507977326"}}, "geometry": {"type": "Point", "coordinates": [-144.357292590778, -19.931347698501963]}}, {"type": "Feature", "properties": {"norad_id": 30385, "name": "FENGYUN 1C DEB", "group": "fengyun-1c-debris", "lat": 60.70019545634573, "lon": -141.1130475922831, "alt_km": 813.0928723609622, "timestamp": "2025-12-26T19:22:39.182830+00:00", "meta": {"OBJECT_NAME": "FENGYUN 1C DEB", "OBJECT_ID": "1999-025ACY", "EPOCH": "2025-12-25T13:29:33.775872", "MEAN_MOTION": 14.38811893, "ECCENTRICITY": 0.0124714, "INCLINATION": 99.081, "RA_OF_ASC_NODE": 21.0103, "ARG_OF_PERICENTER": 251.595, "MEAN_ANOMALY": 261.2852, "EPHEMERIS_TYPE": 0, "CLASSIFICATION_TYPE": "U", "NORAD_CAT_ID": 30385, "ELEMENT_SET_NO": 999, "REV_AT_EPOCH": 98953, "BSTAR": 0.00028035, "MEAN_MOTION_DOT": 8.89e-06, "MEAN_MOTION_DDOT": 0}, "tle": {"line1": "1 30385U 99025ACY 25359.56219648  .00000889  00000+0  28035-3 0  9994", "line2": "2 30385  99.0810  21.0103 0124714 251.5950 261.2852 14.38811893989537"}}, "geometry": {"type": "Point", "coordinates": [-141.1130475922831, 60.70019545634573]}}]}